[{"OBJECT_ID":"2011-037EZ","OBJECT_NAME":"FREGAT DEB","NORAD_CAT_ID":"45944","OBJECT_TYPE":"DEBRIS","PERIOD":"152.294","INCLINATION":"51.2154","ECCENTRICITY":"0.23523970","MEAN_MOTION":"9.45538071","TLE_LINE1":"1 45944U 11037EZ  21271.03582002  .00004321  00000-0  20573-1 0  9999","TLE_LINE2":"2 45944  51.2154 278.0759 2352397 295.1186  42.4187  9.45538071 40818"},{"OBJECT_ID":"2011-037FL","OBJECT_NAME":"FREGAT DEB","NORAD_CAT_ID":"45955","OBJECT_TYPE":"DEBRIS","PERIOD":"151.753","INCLINATION":"51.5089","ECCENTRICITY":"0.25088150","MEAN_MOTION":"9.48912277","TLE_LINE1":"1 45955U 11037FL  21271.32175727  .00002358  00000-0  48875-2 0  9999","TLE_LINE2":"2 45955  51.5089 285.3794 2508815 272.7862  59.1307  9.48912277 40715"},{"OBJECT_ID":"2011-037FU","OBJECT_NAME":"FREGAT DEB","NORAD_CAT_ID":"45963","OBJECT_TYPE":"DEBRIS","PERIOD":"142.108","INCLINATION":"51.3522","ECCENTRICITY":"0.21170330","MEAN_MOTION":"10.13316448","TLE_LINE1":"1 45963U 11037FU  21270.73501140 -.00000993  00000-0 -21895-2 0  9992","TLE_LINE2":"2 45963  51.3522 157.1935 2117033  25.8668 343.4105 10.13316448 43558"},{"OBJECT_ID":"2011-037FZ","OBJECT_NAME":"FREGAT DEB","NORAD_CAT_ID":"45968","OBJECT_TYPE":"DEBRIS","PERIOD":"145.229","INCLINATION":"51.3080","ECCENTRICITY":"0.25414870","MEAN_MOTION":"9.91535454","TLE_LINE1":"1 45968U 11037FZ  21243.10349085  .00218799  00000-0  74062-1 0  9992","TLE_LINE2":"2 45968  51.3080 261.8253 2541487 300.4491  36.9199  9.91535454 39420"},{"OBJECT_ID":"2011-037GF","OBJECT_NAME":"FREGAT DEB","NORAD_CAT_ID":"45974","OBJECT_TYPE":"DEBRIS","PERIOD":"140.669","INCLINATION":"51.4736","ECCENTRICITY":"0.21879220","MEAN_MOTION":"10.23677398","TLE_LINE1":"1 45974U 11037GF  21270.86583117  .00000197  00000-0  32149-3 0  9991","TLE_LINE2":"2 45974  51.4736 116.6621 2187922  53.2137 325.0174 10.23677398 44198"},{"OBJECT_ID":"2011-037GJ","OBJECT_NAME":"FREGAT DEB","NORAD_CAT_ID":"45977","OBJECT_TYPE":"DEBRIS","PERIOD":"135.005","INCLINATION":"51.5465","ECCENTRICITY":"0.18066170","MEAN_MOTION":"10.66627972","TLE_LINE1":"1 45977U 11037GJ  21269.69156096 -.00000184  00000-0 -26960-3 0  9997","TLE_LINE2":"2 45977  51.5465  50.2378 1806617  96.0322 284.8194 10.66627972 45940"},{"OBJECT_ID":"2011-037GL","OBJECT_NAME":"FREGAT DEB","NORAD_CAT_ID":"45979","OBJECT_TYPE":"DEBRIS","PERIOD":"135.673","INCLINATION":"51.5140","ECCENTRICITY":"0.19053000","MEAN_MOTION":"10.61377213","TLE_LINE1":"1 45979U 11037GL  21270.42796118 -.00000069  00000-0  90231-5 0  9992","TLE_LINE2":"2 45979  51.5140  52.6683 1905300  98.6118 283.3954 10.61377213 45771"},{"OBJECT_ID":"2020-053D","OBJECT_NAME":"BREEZE-M DEB (TANK)","NORAD_CAT_ID":"45988","OBJECT_TYPE":"DEBRIS","PERIOD":"407.699","INCLINATION":"49.5897","ECCENTRICITY":"0.63014840","MEAN_MOTION":"3.53202055","TLE_LINE1":"1 45988U 20053D   21272.47154715  .00000289  00000-0  18994-3 0  9995","TLE_LINE2":"2 45988  49.5897  84.9631 6301484 345.8508   2.4617  3.53202055 15100"},{"OBJECT_ID":"2011-037GV","OBJECT_NAME":"FREGAT DEB","NORAD_CAT_ID":"45994","OBJECT_TYPE":"DEBRIS","PERIOD":"131.639","INCLINATION":"51.5135","ECCENTRICITY":"0.17039970","MEAN_MOTION":"10.93903372","TLE_LINE1":"1 45994U 11037GV  21271.39086909 -.00000365  00000-0 -57573-3 0  9996","TLE_LINE2":"2 45994  51.5135 346.1455 1703997 149.5284 221.6732 10.93903372 46538"},{"OBJECT_ID":"2011-037HA","OBJECT_NAME":"FREGAT DEB","NORAD_CAT_ID":"45999","OBJECT_TYPE":"DEBRIS","PERIOD":"143.280","INCLINATION":"51.4569","ECCENTRICITY":"0.21446160","MEAN_MOTION":"10.05027301","TLE_LINE1":"1 45999U 11037HA  21270.69827142  .00000196  00000-0  65312-3 0  9995","TLE_LINE2":"2 45999  51.4569 164.8879 2144616  11.4519 352.7993 10.05027301 42773"},{"OBJECT_ID":"2011-037HD","OBJECT_NAME":"FREGAT DEB","NORAD_CAT_ID":"46002","OBJECT_TYPE":"DEBRIS","PERIOD":"142.043","INCLINATION":"51.2055","ECCENTRICITY":"0.23036640","MEAN_MOTION":"10.13780092","TLE_LINE1":"1 46002U 11037HD  21272.12666492  .00077583  00000-0  64221-1 0  9990","TLE_LINE2":"2 46002  51.2055 171.8457 2303664  31.7229 340.3698 10.13780092 42889"},{"OBJECT_ID":"2011-037HM","OBJECT_NAME":"FREGAT DEB","NORAD_CAT_ID":"46010","OBJECT_TYPE":"DEBRIS","PERIOD":"150.738","INCLINATION":"51.5715","ECCENTRICITY":"0.18750800","MEAN_MOTION":"9.55297828","TLE_LINE1":"1 46010U 11037HM  21253.60762050  .00013927  00000-0  26595+0 0  9990","TLE_LINE2":"2 46010  51.5715 321.7268 1875080 238.1418 102.3290  9.55297828 38971"},{"OBJECT_ID":"2011-037HQ","OBJECT_NAME":"FREGAT DEB","NORAD_CAT_ID":"46013","OBJECT_TYPE":"DEBRIS","PERIOD":"137.740","INCLINATION":"51.1066","ECCENTRICITY":"0.21841220","MEAN_MOTION":"10.45446838","TLE_LINE1":"1 46013U 11037HQ  21272.40246063  .00355720  00000-0  20843+0 0  9993","TLE_LINE2":"2 46013  51.1066 149.8191 2184122  55.8112 323.0893 10.45446838 43312"},{"OBJECT_ID":"2011-037HS","OBJECT_NAME":"FREGAT DEB","NORAD_CAT_ID":"46015","OBJECT_TYPE":"DEBRIS","PERIOD":"128.028","INCLINATION":"51.4120","ECCENTRICITY":"0.18866500","MEAN_MOTION":"11.24752176","TLE_LINE1":"1 46015U 11037HS  21270.63475503  .00003156  00000-0  85670-3 0  9997","TLE_LINE2":"2 46015  51.4120 253.7886 1886650 238.5893 101.6870 11.24752176 48452"},{"OBJECT_ID":"2019-095E","OBJECT_NAME":"BLOCK DM-SL DEB","NORAD_CAT_ID":"46091","OBJECT_TYPE":"DEBRIS","PERIOD":"1394.473","INCLINATION":"1.0435","ECCENTRICITY":"0.00718960","MEAN_MOTION":"1.03264844","TLE_LINE1":"1 46091U 19095E   21271.75306098 -.00000017  00000-0  00000+0 0  9993","TLE_LINE2":"2 46091   1.0435  96.7634 0071896 246.0431 114.2589  1.03264844  5941"},{"OBJECT_ID":"2011-037JE","OBJECT_NAME":"FREGAT DEB","NORAD_CAT_ID":"46095","OBJECT_TYPE":"DEBRIS","PERIOD":"147.634","INCLINATION":"51.0630","ECCENTRICITY":"0.16206400","MEAN_MOTION":"9.75384394","TLE_LINE1":"1 46095U 11037JE  21271.23418306  .00010959  00000-0  28166+0 0  9992","TLE_LINE2":"2 46095  51.0630 265.7092 1620640 348.2850   8.4068  9.75384394 40878"},{"OBJECT_ID":"2011-037JJ","OBJECT_NAME":"FREGAT DEB","NORAD_CAT_ID":"46099","OBJECT_TYPE":"DEBRIS","PERIOD":"129.312","INCLINATION":"51.2786","ECCENTRICITY":"0.15735860","MEAN_MOTION":"11.13582651","TLE_LINE1":"1 46099U 11037JJ  21256.62943599  .00019579  00000-0  42106-1 0  9998","TLE_LINE2":"2 46099  51.2786 348.0692 1573586 205.0937 146.4608 11.13582651 45160"},{"OBJECT_ID":"2011-037JW","OBJECT_NAME":"FREGAT DEB","NORAD_CAT_ID":"46111","OBJECT_TYPE":"DEBRIS","PERIOD":"144.975","INCLINATION":"50.5699","ECCENTRICITY":"0.16282440","MEAN_MOTION":"9.93273901","TLE_LINE1":"1 46111U 11037JW  21245.45109707  .00033928  00000-0  63643+0 0  9998","TLE_LINE2":"2 46111  50.5699 285.9888 1628244 323.0946  26.7839  9.93273901    10"},{"OBJECT_ID":"2020-056D","OBJECT_NAME":"ARIANE 5 DEB (SYLDA)","NORAD_CAT_ID":"46115","OBJECT_TYPE":"DEBRIS","PERIOD":"605.262","INCLINATION":"6.3594","ECCENTRICITY":"0.71908430","MEAN_MOTION":"2.37913413","TLE_LINE1":"1 46115U 20056D   21272.33555299  .00003983  00000-0  19120-2 0  9993","TLE_LINE2":"2 46115   6.3594 319.4659 7190843 151.6697 280.8883  2.37913413  9481"},{"OBJECT_ID":"2011-037JY","OBJECT_NAME":"FREGAT DEB","NORAD_CAT_ID":"46238","OBJECT_TYPE":"DEBRIS","PERIOD":"138.611","INCLINATION":"50.6674","ECCENTRICITY":"0.05354050","MEAN_MOTION":"10.38880987","TLE_LINE1":"1 46238U 11037JY  21253.80357718 -.00000054  00000-0  00000-0 0  9997","TLE_LINE2":"2 46238  50.6674 175.0842 0535405  51.6463 313.1169 10.38880987 41390"},{"OBJECT_ID":"2011-037KN","OBJECT_NAME":"FREGAT DEB","NORAD_CAT_ID":"46252","OBJECT_TYPE":"DEBRIS","PERIOD":"146.437","INCLINATION":"50.6471","ECCENTRICITY":"0.20543420","MEAN_MOTION":"9.83358486","TLE_LINE1":"1 46252U 11037KN  21262.27373113 -.00005464  00000-0 -34050-1 0  9995","TLE_LINE2":"2 46252  50.6471 256.9431 2054342 340.8081  12.5113  9.83358486 38725"},{"OBJECT_ID":"2011-037KV","OBJECT_NAME":"FREGAT DEB","NORAD_CAT_ID":"46259","OBJECT_TYPE":"DEBRIS","PERIOD":"145.858","INCLINATION":"51.8652","ECCENTRICITY":"0.22796370","MEAN_MOTION":"9.87261878","TLE_LINE1":"1 46259U 11037KV  21251.11031050 -.00000295  00000-0 -54948-3 0  9991","TLE_LINE2":"2 46259  51.8652 288.5692 2279637 284.9186  51.1701  9.87261878 37437"},{"OBJECT_ID":"2011-037LM","OBJECT_NAME":"FREGAT DEB","NORAD_CAT_ID":"46406","OBJECT_TYPE":"DEBRIS","PERIOD":"141.448","INCLINATION":"51.5729","ECCENTRICITY":"0.20452800","MEAN_MOTION":"10.18038972","TLE_LINE1":"1 46406U 11037LM  21270.70538777  .00000286  00000-0  10003-2 0  9990","TLE_LINE2":"2 46406  51.5729 146.0684 2045280  18.7200 347.8788 10.18038972 43235"},{"OBJECT_ID":"2011-037LU","OBJECT_NAME":"FREGAT DEB","NORAD_CAT_ID":"46413","OBJECT_TYPE":"DEBRIS","PERIOD":"132.148","INCLINATION":"51.0945","ECCENTRICITY":"0.13792990","MEAN_MOTION":"10.89683722","TLE_LINE1":"1 46413U 11037LU  21271.45253929  .00040951  00000-0  28135+0 0  9999","TLE_LINE2":"2 46413  51.0945  16.2070 1379299 168.5270 195.0656 10.89683722 42801"},{"OBJECT_ID":"2014-055CL","OBJECT_NAME":"ATLAS 5 CENTAUR DEB","NORAD_CAT_ID":"46464","OBJECT_TYPE":"DEBRIS","PERIOD":"788.646","INCLINATION":"21.5035","ECCENTRICITY":"0.48201080","MEAN_MOTION":"1.82591385","TLE_LINE1":"1 46464U 14055CL  21269.82687212 -.00000167  00000-0  00000-0 0  9990","TLE_LINE2":"2 46464  21.5035 312.0962 4820108 226.9201  80.9606  1.82591385 12352"},{"OBJECT_ID":"2018-079BY","OBJECT_NAME":"ATLAS 5 CENTAUR DEB","NORAD_CAT_ID":"46485","OBJECT_TYPE":"DEBRIS","PERIOD":"715.046","INCLINATION":"11.5057","ECCENTRICITY":"0.46762870","MEAN_MOTION":"2.01385763","TLE_LINE1":"1 46485U 18079BY  21266.11019216 -.00000095  00000-0  00000+0 0  9994","TLE_LINE2":"2 46485  11.5057 171.9045 4676287  62.4242 337.0983  2.01385763 10172"},{"OBJECT_ID":"2011-037MC","OBJECT_NAME":"FREGAT DEB","NORAD_CAT_ID":"46524","OBJECT_TYPE":"DEBRIS","PERIOD":"136.234","INCLINATION":"51.6268","ECCENTRICITY":"0.18538630","MEAN_MOTION":"10.57002259","TLE_LINE1":"1 46524U 11037MC  21270.79045448  .00000123  00000-0  49394-3 0  9994","TLE_LINE2":"2 46524  51.6268  69.5052 1853863  75.8708 304.0173 10.57002259 42709"}]